{"type":"FeatureCollection","features":[
{"type":"Feature","properties":{"code":"75101","nom":"Paris 1er Arrondissement","departement":"75","region":"11"},"geometry":{"type":"Polygon","coordinates":[[[2.3209,48.8631],[2.3259,48.8696],[2.328,48.8699],[2.3307,48.8682],[2.3509,48.8634],[2.3502,48.862],[2.3476,48.8574],[2.3446,48.8541],[2.3375,48.8584],[2.3329,48.8594],[2.3209,48.8631]]]}},
{"type":"Feature","properties":{"code":"75102","nom":"Paris 2e Arrondissement","departement":"75","region":"11"},"geometry":{"type":"Polygon","coordinates":[[[2.328,48.8699],[2.34,48.872],[2.3479,48.8707],[2.3543,48.8693],[2.3509,48.8634],[2.3307,48.8682],[2.328,48.8699]]]}},
{"type":"Feature","properties":{"code":"75103","nom":"Paris 3e Arrondissement","departement":"75","region":"11"},"geometry":{"type":"Polygon","coordinates":[[[2.3502,48.862],[2.3509,48.8634],[2.3543,48.8693],[2.3638,48.8675],[2.3667,48.8631],[2.3685,48.8558],[2.3645,48.8564],[2.3593,48.8583],[2.3569,48.8601],[2.3502,48.862]]]}},
{"type":"Feature","properties":{"code":"75104","nom":"Paris 4e Arrondissement","departement":"75","region":"11"},"geometry":{"type":"Polygon","coordinates":[[[2.3446,48.8541],[2.3476,48.8574],[2.3502,48.862],[2.3569,48.8601],[2.3593,48.8583],[2.3645,48.8564],[2.3685,48.8558],[2.3691,48.8532],[2.3665,48.8474],[2.3644,48.8461],[2.3599,48.8492],[2.3502,48.8519],[2.3446,48.8541]]]}},
{"type":"Feature","properties":{"code":"75105","nom":"Paris 5e Arrondissement","departement":"75","region":"11"},"geometry":{"type":"Polygon","coordinates":[[[2.3367,48.8397],[2.3446,48.8541],[2.3502,48.8519],[2.3599,48.8492],[2.3644,48.8461],[2.366,48.8449],[2.3618,48.84],[2.3519,48.8368],[2.3421,48.8384],[2.3367,48.8397]]]}},
{"type":"Feature","properties":{"code":"75106","nom":"Paris 6e Arrondissement","departement":"75","region":"11"},"geometry":{"type":"Polygon","coordinates":[[[2.3166,48.8468],[2.3272,48.8516],[2.3286,48.8519],[2.3333,48.8583],[2.3329,48.8594],[2.3375,48.8584],[2.3446,48.8541],[2.3367,48.8397],[2.3247,48.8436],[2.3166,48.8468]]]}},
{"type":"Feature","properties":{"code":"75107","nom":"Paris 7e Arrondissement","departement":"75","region":"11"},"geometry":{"type":"Polygon","coordinates":[[[2.2898,48.8582],[2.2942,48.8615],[2.298,48.863],[2.3016,48.8635],[2.3185,48.8638],[2.3209,48.8631],[2.3329,48.8594],[2.3333,48.8583],[2.3286,48.8519],[2.3272,48.8516],[2.3166,48.8468],[2.3137,48.8459],[2.3105,48.848],[2.3073,48.8471],[2.2898,48.8582]]]}},
{"type":"Feature","properties":{"code":"75108","nom":"Paris 8e Arrondissement","departement":"75","region":"11"},"geometry":{"type":"Polygon","coordinates":[[[2.295,48.8738],[2.2982,48.8781],[2.3086,48.8803],[2.3167,48.8813],[2.3272,48.8835],[2.3268,48.8731],[2.3259,48.8696],[2.3209,48.8631],[2.3185,48.8638],[2.3016,48.8635],[2.2999,48.8653],[2.2989,48.8685],[2.295,48.8738]]]}},
{"type":"Feature","properties":{"code":"75109","nom":"Paris 9e Arrondissement","departement":"75","region":"11"},"geometry":{"type":"Polygon","coordinates":[[[2.3259,48.8696],[2.3268,48.8731],[2.3272,48.8835],[2.3274,48.8835],[2.3294,48.8846],[2.3398,48.882],[2.3495,48.8837],[2.3499,48.8806],[2.3479,48.874],[2.3479,48.8707],[2.34,48.872],[2.328,48.8699],[2.3259,48.8696]]]}},
{"type":"Feature","properties":{"code":"75110","nom":"Paris 10e Arrondissement","departement":"75","region":"11"},"geometry":{"type":"Polygon","coordinates":[[[2.3495,48.8837],[2.3591,48.8844],[2.3647,48.8844],[2.3681,48.8841],[2.3702,48.8827],[2.3703,48.878],[2.377,48.8721],[2.3638,48.8675],[2.3543,48.8693],[2.3479,48.8707],[2.3479,48.874],[2.3499,48.8806],[2.3495,48.8837]]]}},
{"type":"Feature","properties":{"code":"75111","nom":"Paris 11e Arrondissement","departement":"75","region":"11"},"geometry":{"type":"Polygon","coordinates":[[[2.3638,48.8675],[2.377,48.8721],[2.3831,48.8672],[2.3873,48.8631],[2.3895,48.8586],[2.3944,48.8566],[2.3984,48.8513],[2.3991,48.8481],[2.3842,48.8502],[2.3788,48.8506],[2.3691,48.8532],[2.3685,48.8558],[2.3667,48.8631],[2.3638,48.8675]]]}},
{"type":"Feature","properties":{"code":"75112","nom":"Paris 12e Arrondissement","departement":"75","region":"11"},"geometry":{"type":"Polygon","coordinates":[[[2.3644,48.8461],[2.3665,48.8474],[2.3691,48.8532],[2.3788,48.8506],[2.3842,48.8502],[2.3991,48.8481],[2.416,48.8466],[2.4123,48.8345],[2.4144,48.8336],[2.4222,48.8358],[2.4199,48.8434],[2.4221,48.8445],[2.4248,48.8418],[2.4372,48.8409],[2.4379,48.8446],[2.4408,48.8459],[2.4581,48.8435],[2.4646,48.8415],[2.4698,48.8364],[2.4692,48.8343],[2.4655,48.8316],[2.4645,48.8286],[2.4662,48.8273],[2.4628,48.819],[2.4586,48.817],[2.4496,48.818],[2.4373,48.8182],[2.4304,48.8229],[2.4278,48.824],[2.4199,48.8242],[2.4096,48.8254],[2.4025,48.8296],[2.3944,48.8275],[2.3903,48.8257],[2.3773,48.8358],[2.3729,48.8398],[2.366,48.8449],[2.3644,48.8461]]]}},
{"type":"Feature","properties":{"code":"75113","nom":"Paris 13e Arrondissement","departement":"75","region":"11"},"geometry":{"type":"Polygon","coordinates":[[[2.3421,48.8384],[2.3519,48.8368],[2.3618,48.84],[2.366,48.8449],[2.3729,48.8398],[2.3773,48.8358],[2.3903,48.8257],[2.3815,48.8224],[2.3807,48.8217],[2.3634,48.8161],[2.3559,48.816],[2.3524,48.8185],[2.3469,48.8159],[2.344,48.8158],[2.3446,48.8195],[2.3414,48.8237],[2.3411,48.8325],[2.3421,48.8384]]]}},
{"type":"Feature","properties":{"code":"75114","nom":"Paris 14e Arrondissement","departement":"75","region":"11"},"geometry":{"type":"Polygon","coordinates":[[[2.3013,48.8251],[2.3199,48.8405],[2.3247,48.8436],[2.3367,48.8397],[2.3421,48.8384],[2.3411,48.8325],[2.3414,48.8237],[2.3446,48.8195],[2.344,48.8158],[2.3417,48.8163],[2.3317,48.817],[2.3324,48.8182],[2.3013,48.8251]]]}},
{"type":"Feature","properties":{"code":"75115","nom":"Paris 15e Arrondissement","departement":"75","region":"11"},"geometry":{"type":"Polygon","coordinates":[[[2.263,48.8339],[2.2757,48.847],[2.2881,48.8561],[2.2898,48.8582],[2.3073,48.8471],[2.3105,48.848],[2.3137,48.8459],[2.3166,48.8468],[2.3247,48.8436],[2.3199,48.8405],[2.3013,48.8251],[2.2922,48.8271],[2.2791,48.8324],[2.2727,48.8279],[2.2676,48.828],[2.2673,48.8316],[2.27,48.833],[2.2679,48.8346],[2.263,48.8339]]]}},
{"type":"Feature","properties":{"code":"75116","nom":"Paris 16e Arrondissement","departement":"75","region":"11"},"geometry":{"type":"Polygon","coordinates":[[[2.2798,48.8787],[2.295,48.8738],[2.2989,48.8685],[2.2999,48.8653],[2.3016,48.8635],[2.298,48.863],[2.2942,48.8615],[2.2898,48.8582],[2.2881,48.8561],[2.2757,48.847],[2.263,48.8339],[2.2552,48.8348],[2.2516,48.8389],[2.2507,48.8456],[2.2425,48.8477],[2.2393,48.8501],[2.2242,48.8534],[2.225,48.858],[2.2282,48.8651],[2.2321,48.8695],[2.2397,48.8716],[2.2456,48.8764],[2.2548,48.8741],[2.2589,48.8803],[2.2775,48.878],[2.2798,48.8787]]]}},
{"type":"Feature","properties":{"code":"75117","nom":"Paris 17e Arrondissement","departement":"75","region":"11"},"geometry":{"type":"Polygon","coordinates":[[[2.2798,48.8787],[2.281,48.8829],[2.2857,48.8866],[2.2915,48.8895],[2.295,48.8899],[2.3076,48.896],[2.3185,48.8996],[2.3204,48.9008],[2.3302,48.901],[2.3256,48.8875],[2.3274,48.8835],[2.3272,48.8835],[2.3167,48.8813],[2.3086,48.8803],[2.2982,48.8781],[2.295,48.8738],[2.2798,48.8787]]]}},
{"type":"Feature","properties":{"code":"75118","nom":"Paris 18e Arrondissement","departement":"75","region":"11"},"geometry":{"type":"Polygon","coordinates":[[[2.3302,48.901],[2.3703,48.9019],[2.3704,48.8966],[2.3718,48.8954],[2.3699,48.8935],[2.3667,48.8866],[2.3647,48.8844],[2.3591,48.8844],[2.3495,48.8837],[2.3398,48.882],[2.3294,48.8846],[2.3274,48.8835],[2.3256,48.8875],[2.3302,48.901]]]}},
{"type":"Feature","properties":{"code":"75119","nom":"Paris 19e Arrondissement","departement":"75","region":"11"},"geometry":{"type":"Polygon","coordinates":[[[2.3647,48.8844],[2.3667,48.8866],[2.3699,48.8935],[2.3718,48.8954],[2.3704,48.8966],[2.3703,48.9019],[2.3844,48.9022],[2.3907,48.901],[2.3955,48.8983],[2.3978,48.8946],[2.3992,48.8882],[2.3992,48.8849],[2.4037,48.8815],[2.4093,48.8803],[2.4108,48.8784],[2.4026,48.876],[2.3952,48.8752],[2.3921,48.8755],[2.377,48.8721],[2.3703,48.878],[2.3702,48.8827],[2.3681,48.8841],[2.3647,48.8844]]]}},
{"type":"Feature","properties":{"code":"75120","nom":"Paris 20e Arrondissement","departement":"75","region":"11"},"geometry":{"type":"Polygon","coordinates":[[[2.377,48.8721],[2.3921,48.8755],[2.3952,48.8752],[2.4026,48.876],[2.4108,48.8784],[2.4125,48.8764],[2.4136,48.8725],[2.4139,48.8641],[2.4164,48.8488],[2.416,48.8466],[2.3991,48.8481],[2.3984,48.8513],[2.3944,48.8566],[2.3895,48.8586],[2.3873,48.8631],[2.3831,48.8672],[2.377,48.8721]]]}}
]}